GSAT0101 (PRN E11)      
1 37846U 11060A   21294.51074155 -.00000099  00000-0  00000-0 0  9991
2 37846  56.8993  27.8446 0000497 359.6082   0.4102  1.70475264 62140
GSAT0102 (PRN E12)      
1 37847U 11060B   21294.42878995 -.00000099  00000-0  00000-0 0  9996
2 37847  56.9002  27.8462 0002267 295.7068  60.4131  1.70475517 62141
GSAT0103 (PRN E19)      
1 38857U 12055A   21293.96508849  .00000051  00000-0  00000-0 0  9996
2 38857  55.0712 148.2855 0001522 245.7975 114.2930  1.70473867 56021
GSAT0104 (PRN E20)      
1 38858U 12055B   21294.52217600  .00000051  00000-0  00000-0 0  9992
2 38858  55.0716 148.2716 0001153 115.5373 244.5794  1.70474190 56034
GSAT0201 (PRN E18)      
1 40128U 14050A   21293.89336557 -.00000106  00000-0  00000-0 0  9996
2 40128  50.4186 341.8271 1639075 115.7317 262.0934  1.85519386 46779
GSAT0202 (PRN E14)      
1 40129U 14050B   21295.23326144 -.00000104  00000-0  00000-0 0  9996
2 40129  50.4469 340.8273 1636111 116.5846 261.1130  1.85520118 48965
GSAT0203 (PRN E26)      
1 40544U 15017A   21294.87913948 -.00000098  00000-0  00000-0 0  9996
2 40544  56.6941  27.9006 0004169 230.3969 129.5861  1.70475248 40235
GSAT0204 (PRN E22)      
1 40545U 15017B   21293.95844750 -.00000101  00000-0  00000-0 0  9994
2 40545  56.6997  27.9370 0004238 215.7357 144.2520  1.70475873  3268
GSAT0205 (PRN E24)      
1 40889U 15045A   21293.72580591 -.00000025  00000-0  00000-0 0  9996
2 40889  55.7873 268.5831 0004590 345.7218  14.2255  1.70474945 38020
GSAT0206 (PRN E30)      
1 40890U 15045B   21295.11843670 -.00000018  00000-0  00000-0 0  9995
2 40890  55.7875 268.5409 0003573 324.8182  35.1200  1.70474965 38072
GSAT0209 (PRN E09)      
1 41174U 15079A   21294.12146096  .00000052  00000-0  00000+0 0  9992
2 41174  55.0871 147.9829 0002674 341.8349  18.2614  1.70473092 36370
GSAT0208 (PRN E08)      
1 41175U 15079B   21294.92771076  .00000051  00000-0  00000-0 0  9993
2 41175  55.0853 147.9596 0002015 354.4722   5.6286  1.70473051 36220
GSAT0211 (PRN E02)      
1 41549U 16030A   21293.87398608 -.00000024  00000-0  00000-0 0  9996
2 41549  55.9330 268.4827 0005110 308.1374  51.7767  1.70474678 33687
GSAT0210 (PRN E01)      
1 41550U 16030B   21294.16671526 -.00000023  00000-0  00000-0 0  9993
2 41550  55.9317 268.4762 0004841 284.9440  74.9626  1.70474671 33681
GSAT0207 (PRN E07)      
1 41859U 16069A   21292.06764724  .00000049  00000-0  00000-0 0  9994
2 41859  54.7459 148.2803 0002232 318.4357  41.6550  1.70473005 30381
GSAT0212 (PRN E03)      
1 41860U 16069B   21294.85399834  .00000050  00000-0  00000-0 0  9993
2 41860  54.7443 148.2011 0002227  10.7165 349.3918  1.70473056 30685
GSAT0213 (PRN E04)      
1 41861U 16069C   21294.63294630  .00000051  00000-0  00000-0 0  9999
2 41861  54.7464 148.2120 0001476 268.8586  91.2288  1.70473169 30541
GSAT0214 (PRN E05)      
1 41862U 16069D   21293.02030116  .00000051  00000-0  00000-0 0  9999
2 41862  54.7443 148.2516 0000658 287.8994  72.2013  1.70473081 30642
GSAT0215 (PRN E21)      
1 43055U 17079A   21294.68355531 -.00000020  00000-0  00000-0 0  9998
2 43055  55.9077 268.2966 0004194 281.6318  78.2818  1.70473885 24012
GSAT0216 (PRN E25)      
1 43056U 17079B   21293.80278520 -.00000024  00000-0  00000-0 0  9998
2 43056  55.9086 268.3204 0005969 281.1133  78.7796  1.70473969 24013
GSAT0217 (PRN E27)      
1 43057U 17079C   21294.60954048 -.00000021  00000-0  00000-0 0  9991
2 43057  55.9061 268.2983 0005549 290.7926  69.1085  1.70473996 24015
GSAT0218 (PRN E31)      
1 43058U 17079D   21293.06980328 -.00000027  00000-0  00000-0 0  9997
2 43058  55.9075 268.3380 0006394 277.4532  82.4348  1.70473949 24015
GSAT0221 (PRN E15)      
1 43564U 18060A   21294.72818840 -.00000098  00000-0  00000-0 0  9991
2 43564  57.0779  27.6591 0004095 251.2846 108.6908  1.70476355 20197
GSAT0222 (PRN E33)      
1 43565U 18060B   21293.77485444 -.00000101  00000-0  00000-0 0  9991
2 43565  57.0798  27.6849 0003527 256.8913 103.0853  1.70476348 20224
GSAT0219 (PRN E36)      
1 43566U 18060C   21292.23567743 -.00000105  00000-0  00000+0 0  9998
2 43566  57.0801  27.7287 0003085 254.0802 105.8961  1.70476269 20179
GSAT0220 (PRN E13)      
1 43567U 18060D   21294.80195961 -.00000098  00000-0  00000-0 0  9995
2 43567  57.0792  27.6592 0003475 250.9935 108.9889  1.70476301 20206
